NORAD_CAT_ID,OBJECT_NAME,OBJECT_TYPE,EPOCH,MEAN_MOTION,ECCENTRICITY,INCLINATION,RA_OF_ASC_NODE,ARG_OF_PERICENTER,MEAN_ANOMALY,BSTAR,MEAN_MOTION_DOT,MEAN_MOTION_DDOT,TLE_LINE0,TLE_LINE1,TLE_LINE2,SEMIMAJOR_AXIS,PERIOD,APOGEE,PERIGEE,DECAYED
53177.0,STARLINK-4298,PAYLOAD,2023-11-13 09:08:28,15.08850967,0.0001425,53.2172,342.8295,95.4385,264.677,0.00021304,3.105e-05,0.0,0 STARLINK-4298,1 53177U 22083AX  23317.38088525  .00003105  00000-0  21304-3 0  9995,2 53177  53.2172 342.8295 0001425  95.4385 264.6770 15.08850967 74422,6917.847,95.437,540.698,538.726,0.0
53177.0,STARLINK-4298,PAYLOAD,2023-11-13 23:26:57,15.08841763,0.000142,53.2181,340.1544,95.4854,264.6301,0.00011167,1.49e-05,0.0,0 STARLINK-4298,1 53177U 22083AX  23317.97704884  .00001490  00000-0  11167-3 0  9994,2 53177  53.2181 340.1544 0001420  95.4854 264.6301 15.08841763 74510,6917.875,95.437,540.722,538.758,0.0
53177.0,STARLINK-4298,PAYLOAD,2023-11-14 10:34:39,15.0883381,0.0001377,53.2177,338.0685,89.609,270.506,5.2022e-05,5.4e-06,0.0,0 STARLINK-4298,1 53177U 22083AX  23318.44073769  .00000540  00000-0  52022-4 0  9999,2 53177  53.2177 338.0685 0001377  89.6090 270.5060 15.08833810 74584,6917.899,95.438,540.717,538.812,0.0
53177.0,STARLINK-4298,PAYLOAD,2023-11-14 18:31:35,15.08838465,0.0001419,53.2179,336.5822,83.0584,277.0569,3.7347e-05,3.06e-06,0.0,0 STARLINK-4298,1 53177U 22083AX  23318.77193585  .00000306  00000-0  37347-4 0  9997,2 53177  53.2179 336.5822 0001419  83.0584 277.0569 15.08838465 73996,6917.885,95.438,540.732,538.768,0.0
53177.0,STARLINK-4298,PAYLOAD,2023-11-15 08:50:02,15.0885161,0.0001425,53.2179,333.9061,82.4321,277.6833,3.3524e-06,-2.35e-06,0.0,0 STARLINK-4298,1 53177U 22083AX  23319.36808789 -.00000235  00000-0  33524-5 0  9998,2 53177  53.2179 333.9061 0001425  82.4321 277.6833 15.08851610 74720,6917.845,95.437,540.696,538.724,0.0
53177.0,STARLINK-4298,PAYLOAD,2023-11-15 18:22:21,15.08847406,0.0001446,53.2182,332.1239,86.443,273.6728,2.8086e-05,1.59e-06,0.0,0 STARLINK-4298,1 53177U 22083AX  23319.76552877  .00000159  00000-0  28086-4 0  9996,2 53177  53.2182 332.1239 0001446  86.4430 273.6728 15.08847406 74143,6917.858,95.437,540.723,538.722,0.0
53177.0,STARLINK-4298,PAYLOAD,2023-11-16 00:43:54,15.08833281,0.0001544,53.2179,330.9357,82.5223,277.5944,0.00020884,3.037e-05,0.0,0 STARLINK-4298,1 53177U 22083AX  23320.03049485  .00003037  00000-0  20884-3 0  9999,2 53177  53.2179 330.9357 0001544  82.5223 277.5944 15.08833281 74826,6917.901,95.438,540.834,538.698,0.0
53177.0,STARLINK-4298,PAYLOAD,2023-11-16 07:05:27,15.08837093,0.0001556,53.2178,329.7463,83.9588,276.1581,0.0001357,1.872e-05,0.0,0 STARLINK-4298,1 53177U 22083AX  23320.29545539  .00001872  00000-0  13570-3 0  9997,2 53177  53.2178 329.7463 0001556  83.9588 276.1581 15.08837093 74222,6917.889,95.438,540.831,538.678,0.0
53177.0,STARLINK-4298,PAYLOAD,2023-11-16 18:13:09,15.08840994,0.0001553,53.2179,327.6645,84.2643,275.8526,0.00011663,1.569e-05,0.0,0 STARLINK-4298,1 53177U 22083AX  23320.75913348  .00001569  00000-0  11663-3 0  9999,2 53177  53.2179 327.6645 0001553  84.2643 275.8526 15.08840994 74291,6917.877,95.437,540.817,538.668,0.0
53177.0,STARLINK-4298,PAYLOAD,2023-11-17 06:56:14,15.08840609,0.0001569,53.2176,325.2843,107.6421,252.4742,5.4817e-05,5.85e-06,0.0,0 STARLINK-4298,1 53177U 22083AX  23321.28905437  .00000585  00000-0  54817-4 0  9994,2 53177  53.2176 325.2843 0001569 107.6421 252.4742 15.08840609 75018,6917.879,95.438,540.829,538.658,0.0
53177.0,STARLINK-4298,PAYLOAD,2023-11-18 03:36:17,15.08793841,0.0001374,53.2169,321.4185,105.0093,255.1052,0.00043305,6.602e-05,0.0,0 STARLINK-4298,1 53177U 22083AX  23322.15019989  .00006602  00000-0  43305-3 0  9994,2 53177  53.2169 321.4185 0001374 105.0093 255.1052 15.08793841 75141,6918.021,95.44,540.837,538.936,0.0
53177.0,STARLINK-4298,PAYLOAD,2023-11-18 09:57:48,15.0883101,0.0001518,53.2177,320.2288,92.4682,267.6484,-2.5997e-06,-3.29e-06,0.0,0 STARLINK-4298,1 53177U 22083AX  23322.41514818 -.00000329  00000-0 -25997-5 0  9995,2 53177  53.2177 320.2288 0001518  92.4682 267.6484 15.08831010 75186,6917.908,95.438,540.823,538.723,0.0
53177.0,STARLINK-4298,PAYLOAD,2023-11-19 03:27:02,15.08839246,0.0001499,53.2178,316.9576,90.862,269.2544,9.3107e-05,1.194e-05,0.0,0 STARLINK-4298,1 53177U 22083AX  23323.14378220  .00001194  00000-0  93107-4 0  9997,2 53177  53.2178 316.9576 0001499  90.8620 269.2544 15.08839246 75297,6917.883,95.438,540.785,538.711,0.0
53177.0,STARLINK-4298,PAYLOAD,2023-11-19 09:48:34,15.08846793,0.0001525,53.2178,315.7686,93.462,266.6547,0.00016856,2.396e-05,0.0,0 STARLINK-4298,1 53177U 22083AX  23323.40873726  .00002396  00000-0  16856-3 0  9997,2 53177  53.2178 315.7686 0001525  93.4620 266.6547 15.08846793 74697,6917.86,95.437,540.78,538.67,0.0
53177.0,STARLINK-4298,PAYLOAD,2023-11-19 16:10:07,15.08848817,0.0001441,53.2175,314.5788,89.0334,271.0823,9.2033e-05,1.177e-05,0.0,0 STARLINK-4298,1 53177U 22083AX  23323.67369716  .00001177  00000-0  92033-4 0  9993,2 53177  53.2175 314.5788 0001441  89.0334 271.0823 15.08848817 74735,6917.853,95.437,540.715,538.722,0.0
53177.0,STARLINK-4298,PAYLOAD,2023-11-20 06:28:35,15.08850178,0.000154,53.2177,311.9028,89.7179,270.3989,0.00029033,4.337e-05,0.0,0 STARLINK-4298,1 53177U 22083AX  23324.26985494  .00004337  00000-0  29033-3 0  9996,2 53177  53.2177 311.9028 0001540  89.7179 270.3989 15.08850178 75468,6917.849,95.437,540.78,538.649,0.0
53177.0,STARLINK-4298,PAYLOAD,2023-11-20 16:00:54,15.08846831,0.0001439,53.2167,310.1202,89.881,270.2347,0.00015386,2.162e-05,0.0,0 STARLINK-4298,1 53177U 22083AX  23324.66729726  .00002162  00000-0  15386-3 0  9994,2 53177  53.2167 310.1202 0001439  89.8810 270.2347 15.08846831 75527,6917.86,95.437,540.72,538.729,0.0
53177.0,STARLINK-4298,PAYLOAD,2023-11-20 22:22:27,15.0884487,0.0001931,53.2177,308.9285,88.1141,272.0072,2.0765e-05,4.2e-07,0.0,0 STARLINK-4298,1 53177U 22083AX  23324.93225815  .00000042  00000-0  20765-4 0  9997,2 53177  53.2177 308.9285 0001931  88.1141 272.0072 15.08844870 74929,6917.866,95.437,541.066,538.395,0.0
53177.0,STARLINK-4298,PAYLOAD,2023-11-21 07:54:45,15.08852794,0.0001597,53.2173,307.1454,96.5659,263.5515,7.6051e-05,9.23e-06,0.0,0 STARLINK-4298,1 53177U 22083AX  23325.32969178  .00000923  00000-0  76051-4 0  9995,2 53177  53.2173 307.1454 0001597  96.5659 263.5515 15.08852794 74986,6917.841,95.437,540.811,538.602,0.0
53177.0,STARLINK-4298,PAYLOAD,2023-11-22 02:59:23,15.08845554,0.0001709,53.2173,303.5785,100.0803,260.0382,3.8363e-05,3.23e-06,0.0,0 STARLINK-4298,1 53177U 22083AX  23326.12457604  .00000323  00000-0  38363-4 0  9998,2 53177  53.2173 303.5785 0001709 100.0803 260.0382 15.08845554 75745,6917.863,95.437,540.911,538.546,0.0
53177.0,STARLINK-4298,PAYLOAD,2023-11-22 07:45:32,15.08847316,0.0001464,53.2161,302.6847,95.7595,264.3564,0.0001292,1.769e-05,0.0,0 STARLINK-4298,1 53177U 22083AX  23326.32329380  .00001769  00000-0  12920-3 0  9994,2 53177  53.2161 302.6847 0001464  95.7595 264.3564 15.08847316 75137,6917.858,95.437,540.736,538.71,0.0
53177.0,STARLINK-4298,PAYLOAD,2023-11-23 02:50:10,15.08839642,0.0001842,53.2175,299.1172,83.8265,276.2937,0.00017045,2.426e-05,0.0,0 STARLINK-4298,1 53177U 22083AX  23327.11818171  .00002426  00000-0  17045-3 0  9997,2 53177  53.2175 299.1172 0001842  83.8265 276.2937 15.08839642 75897,6917.881,95.438,541.021,538.472,0.0
53177.0,STARLINK-4298,PAYLOAD,2023-11-23 07:36:19,15.08852448,0.0001607,53.2171,298.2222,94.7624,265.3552,0.00054551,8.407e-05,0.0,0 STARLINK-4298,1 53177U 22083AX  23327.31689645  .00008407  00000-0  54551-3 0  9999,2 53177  53.2171 298.2222 0001607  94.7624 265.3552 15.08852448 75923,6917.842,95.437,540.819,538.596,0.0
53177.0,STARLINK-4298,PAYLOAD,2023-11-23 21:54:49,15.08827384,0.0001643,53.2176,295.547,85.8798,274.2382,-7.7019e-05,-1.513e-05,0.0,0 STARLINK-4298,1 53177U 22083AX  23327.91306730 -.00001513  00000-0 -77019-4 0  9994,2 53177  53.2176 295.5470 0001643  85.8798 274.2382 15.08827384 75376,6917.919,95.438,540.921,538.647,0.0
53177.0,STARLINK-4298,PAYLOAD,2023-11-24 02:40:58,15.08834267,0.0002316,53.2167,294.6527,116.7102,243.4128,5.6212e-05,6.06e-06,0.0,0 STARLINK-4298,1 53177U 22083AX  23328.11178356  .00000606  00000-0  56212-4 0  9990,2 53177  53.2167 294.6527 0002316 116.7102 243.4128 15.08834267 76049,6917.898,95.438,541.365,538.161,0.0
53177.0,STARLINK-4298,PAYLOAD,2023-11-24 07:27:07,15.08838845,0.0001928,53.2179,293.7623,95.9742,264.147,0.00017526,2.502e-05,0.0,0 STARLINK-4298,1 53177U 22083AX  23328.31050668  .00002502  00000-0  17526-3 0  9998,2 53177  53.2179 293.7623 0001928  95.9742 264.1470 15.08838845 75433,6917.884,95.438,541.083,538.415,0.0
53177.0,STARLINK-4298,PAYLOAD,2023-11-24 21:45:35,15.08845767,0.0001904,53.2176,291.0857,109.0207,251.0992,0.00019613,2.835e-05,0.0,0 STARLINK-4298,1 53177U 22083AX  23328.90666534  .00002835  00000-0  19613-3 0  9996,2 53177  53.2176 291.0857 0001904 109.0207 251.0992 15.08845767 75522,6917.863,95.437,541.045,538.411,0.0
53177.0,STARLINK-4298,PAYLOAD,2023-11-25 04:07:08,15.08854345,0.0001851,53.2175,289.8972,99.8772,260.2429,0.00054023,8.324e-05,0.0,0 STARLINK-4298,1 53177U 22083AX  23329.17162389  .00008324  00000-0  54023-3 0  9998,2 53177  53.2175 289.8972 0001851  99.8772 260.2429 15.08854345 76203,6917.837,95.437,540.982,538.421,0.0
53177.0,STARLINK-4298,PAYLOAD,2023-11-25 07:17:54,15.08864108,0.0001875,53.2169,289.3009,99.3694,260.751,0.0008819,0.00013785,0.0,0 STARLINK-4298,1 53177U 22083AX  23329.30410149  .00013785  00000-0  88190-3 0  9992,2 53177  53.2169 289.3009 0001875  99.3694 260.7510 15.08864108 75580,6917.807,95.436,540.969,538.375,0.0
53177.0,STARLINK-4298,PAYLOAD,2023-11-26 02:22:31,15.08869791,0.0001695,53.2175,285.7252,96.8313,263.2872,0.00070926,0.00011027,0.0,0 STARLINK-4298,1 53177U 22083AX  23330.09897354  .00011027  00000-0  70926-3 0  9992,2 53177  53.2175 285.7252 0001695  96.8313 263.2872 15.08869791 76344,6917.789,95.436,540.827,538.482,0.0
